KUIPER-00104            
1 65142U 25171L   25345.28441025 -.00003880  00000+0 -45573-3 0  9996
2 65142  51.8988 187.9325 0002341 237.8846 122.1890 14.82063174 19810
KUIPER-00105            
1 65143U 25171M   25345.61029081 -.00004621  00000+0 -57615-3 0  9992
2 65143  51.9114 195.1419 0012639 176.0225 184.0841 14.79943644 19744
KUIPER-00106            
1 65144U 25171N   25344.98360654  .00007403  00000+0  66615-3 0  9995
2 65144  51.8916 197.8822 0009621 161.9752 198.1561 14.96495446 19652
KUIPER-00107            
1 65145U 25171P   25345.57352536 -.00175654  00000+0 -12565-1 0  9991
2 65145  51.8821 179.3117 0007522 233.8193 126.2085 15.04846724 19962
KUIPER-00108            
1 65146U 25171Q   25344.97419432 -.00002034  00000+0 -23772-3 0  9999
2 65146  51.9014 192.8877 0008661 176.3833 183.7194 14.79875199 19720
KUIPER-00109            
1 65147U 25171R   25345.66668981 -.00040551  00000+0 -52602-2 0  9991
2 65147  51.9000 184.7681 0013139 201.0484  40.3673 14.80354652  5704
KUIPER-00110            
1 65148U 25171S   25345.63605626 -.00024147  00000+0 -33881-2 0  9997
2 65148  51.8963 197.4570 0011270 172.2900 187.8236 14.76807895 19700
KUIPER-00111            
1 65149U 25171T   25345.33211569  .00023991  00000+0  31621-2 0  9998
2 65149  51.9033 203.7854 0009158 179.8445 180.2522 14.79942810 19597
